{"type": "FeatureCollection", "features": [ {"type": "Feature", "properties": {"norad_id": 31880, "name": "FENGYUN 1C DEB", "group": "fengyun-1c-debris", "lat": 6.442839986983529, "lon": 161.77925391937046, "alt_km": 967.4640464198001, "timestamp": "2025-12-25T03:55:56.642443+00:00", "meta": {"OBJECT_NAME": "FENGYUN 1C DEB", "OBJECT_ID": "1999-025CKF", "EPOCH": "2025-12-23T17:20:07.380960", "MEAN_MOTION": 13.89415014, "ECCENTRICITY": 0.01272675, "INCLINATION": 100.0295, "RA_OF_ASC_NODE": 161.3731, "ARG_OF_PERICENTER": 123.1023, "MEAN_ANOMALY": 238.2424, "EPHEMERIS_TYPE": 0, "CLASSIFICATION_TYPE": "U", "NORAD_CAT_ID": 31880, "ELEMENT_SET_NO": 999, "REV_AT_EPOCH": 63132, "BSTAR": 0.0003727292, "MEAN_MOTION_DOT": 4.36e-06, "MEAN_MOTION_DDOT": 0}, "tle": {"line1": "1 31880U 99025CKF 25357.72230765  .00000436  00000+0  37273-3 0  9996", "line2": "2 31880 100.0295 161.3731 0127267 123.1023 238.2424 13.89415014631324"}}, "geometry": {"type": "Point", "coordinates": [161.77925391937046, 6.442839986983529]}}, {"type": "Feature", "properties": {"norad_id": 31882, "name": "FENGYUN 1C DEB", "group": "fengyun-1c-debris", "lat": -78.18634195977631, "lon": -29.711026509480284, "alt_km": 855.6909227720644, "timestamp": "2025-12-25T03:55:56.642453+00:00", "meta": {"OBJECT_NAME": "FENGYUN 1C DEB", "OBJECT_ID": "1999-025CKH", "EPOCH": "2025-12-18T00:40:31.724544", "MEAN_MOTION": 14.12983565, "ECCENTRICITY": 0.0035355, "INCLINATION": 98.9173, "RA_OF_ASC_NODE": 274.5372, "ARG_OF_PERICENTER": 209.4535, "MEAN_ANOMALY": 150.4646, "EPHEMERIS_TYPE": 0, "CLASSIFICATION_TYPE": "U", "NORAD_CAT_ID": 31882, "ELEMENT_SET_NO": 999, "REV_AT_EPOCH": 58711, "BSTAR": 0.0005205777, "MEAN_MOTION_DOT": 9.32e-06, "MEAN_MOTION_DDOT": 0}, "tle": {"line1": "1 31882U 99025CKH 25352.02814496  .00000932  00000+0  52058-3 0  9994", "line2": "2 31882  98.9173 274.5372 0035355 209.4535 150.4646 14.12983565587112"}}, "geometry": {"type": "Point", "coordinates": [-29.711026509480284, -78.18634195977631]}}, {"type": "Feature", "properties": {"norad_id": 31883, "name": "FENGYUN 1C DEB", "group": "fengyun-1c-debris", "lat": -79.77700789120648, "lon": 35.21260746091355, "alt_km": 726.1404159314361, "timestamp": "2025-12-25T03:55:56.642463+00:00", "meta": {"OBJECT_NAME": "FENGYUN 1C DEB", "OBJECT_ID": "1999-025CKJ", "EPOCH": "2025-12-24T05:27:29.012832", "MEAN_MOTION": 14.67836986, "ECCENTRICITY": 0.01245715, "INCLINATION": 99.0288, "RA_OF_ASC_NODE": 276.027, "ARG_OF_PERICENTER": 34.0788, "MEAN_ANOMALY": 326.8334, "EPHEMERIS_TYPE": 0, "CLASSIFICATION_TYPE": "U", "NORAD_CAT_ID": 31883, "ELEMENT_SET_NO": 999, "REV_AT_EPOCH": 98147, "BSTAR": 0.0010292614, "MEAN_MOTION_DOT": 6.548e-05, "MEAN_MOTION_DDOT": 0}, "tle": {"line1": "1 31883U 99025CKJ 25358.22741913  .00006548  00000+0  10293-2 0  9999", "line2": "2 31883  99.0288 276.0270 0124571  34.0788 326.8334 14.67836986981471"}}, "geometry": {"type": "Point", "coordinates": [35.21260746091355, -79.77700789120648]}}, {"type": "Feature", "properties": {"norad_id": 31887, "name": "FENGYUN 1C DEB", "group": "fengyun-1c-debris", "lat": -36.41918688267866, "lon": 59.68408983565503, "alt_km": 689.4540575412666, "timestamp": "2025-12-25T03:55:56.642473+00:00", "meta": {"OBJECT_NAME": "FENGYUN 1C DEB", "OBJECT_ID": "1999-025CKN", "EPOCH": "2025-12-17T21:29:51.977472", "MEAN_MOTION": 14.57822744, "ECCENTRICITY": 0.00239553, "INCLINATION": 99.5345, "RA_OF_ASC_NODE": 44.2427, "ARG_OF_PERICENTER": 348.6821, "MEAN_ANOMALY": 11.3832, "EPHEMERIS_TYPE": 0, "CLASSIFICATION_TYPE": "U", "NORAD_CAT_ID": 31887, "ELEMENT_SET_NO": 999, "REV_AT_EPOCH": 96683, "BSTAR": 0.00059528528, "MEAN_MOTION_DOT": 2.676e-05, "MEAN_MOTION_DDOT": 0}, "tle": {"line1": "1 31887U 99025CKN 25351.89574048  .00002676  00000+0  59529-3 0  9996", "line2": "2 31887  99.5345  44.2427 0023955 348.6821  11.3832 14.57822744966837"}}, "geometry": {"type": "Point", "coordinates": [59.68408983565503, -36.41918688267866]}}, {"type": "Feature", "properties": {"norad_id": 31888, "name": "FENGYUN 1C DEB", "group": "fengyun-1c-debris", "lat": 9.827989505966974, "lon": -75.31405044270328, "alt_km": 792.0045838487667, "timestamp": "2025-12-25T03:55:56.642483+00:00", "meta": {"OBJECT_NAME": "FENGYUN 1C DEB", "OBJECT_ID": "1999-025CKP", "EPOCH": "2025-12-23T15:02:46.088448", "MEAN_MOTION": 14.34034526, "ECCENTRICITY": 0.00174868, "INCLINATION": 99.1542, "RA_OF_ASC_NODE": 284.6608, "ARG_OF_PERICENTER": 182.2793, "MEAN_ANOMALY": 177.8313, "EPHEMERIS_TYPE": 0, "CLASSIFICATION_TYPE": "U", "NORAD_CAT_ID": 31888, "ELEMENT_SET_NO": 999, "REV_AT_EPOCH": 95793, "BSTAR": 0.0018919921, "MEAN_MOTION_DOT": 5.249e-05, "MEAN_MOTION_DDOT": 0}, "tle": {"line1": "1 31888U 99025CKP 25357.62692232  .00005249  00000+0  18920-2 0  9998", "line2": "2 31888  99.1542 284.6608 0017486 182.2793 177.8313 14.34034526957937"}}, "geometry": {"type": "Point", "coordinates": [-75.31405044270328, 9.827989505966974]}}, {"type": "Feature", "properties": {"norad_id": 31890, "name": "FENGYUN 1C DEB", "group": "fengyun-1c-debris", "lat": 63.72758338328826, "lon": -7.8085534624169615, "alt_km": 893.2617680445956, "timestamp": "2025-12-25T03:55:56.642495+00:00", "meta": {"OBJECT_NAME": "FENGYUN 1C DEB", "OBJECT_ID": "1999-025CKR", "EPOCH": "2025-12-18T06:26:12.801408", "MEAN_MOTION": 14.10135343, "ECCENTRICITY": 0.00717599, "INCLINATION": 98.7186, "RA_OF_ASC_NODE": 3.6189, "ARG_OF_PERICENTER": 226.3843, "MEAN_ANOMALY": 133.1361, "EPHEMERIS_TYPE": 0, "CLASSIFICATION_TYPE": "U", "NORAD_CAT_ID": 31890, "ELEMENT_SET_NO": 999, "REV_AT_EPOCH": 64230, "BSTAR": 0.00011349556, "MEAN_MOTION_DOT": 1.63e-06, "MEAN_MOTION_DDOT": 0}, "tle": {"line1": "1 31890U 99025CKR 25352.26820372  .00000163  00000+0  11350-3 0  9995", "line2": "2 31890  98.7186   3.6189 0071759 226.3843 133.1361 14.10135343642304"}}, "geometry": {"type": "Point", "coordinates": [-7.8085534624169615, 63.72758338328826]}}, {"type": "Feature", "properties": {"norad_id": 31891, "name": "FENGYUN 1C DEB", "group": "fengyun-1c-debris", "lat": 6.123803686396865, "lon": -165.0888762324744, "alt_km": 860.7463028238135, "timestamp": "2025-12-25T03:55:56.642505+00:00", "meta": {"OBJECT_NAME": "FENGYUN 1C DEB", "OBJECT_ID": "1999-025CKS", "EPOCH": "2025-12-22T06:32:52.690848", "MEAN_MOTION": 13.66212929, "ECCENTRICITY": 0.02251424, "INCLINATION": 99.4019, "RA_OF_ASC_NODE": 11.0849, "ARG_OF_PERICENTER": 158.7468, "MEAN_ANOMALY": 202.3212, "EPHEMERIS_TYPE": 0, "CLASSIFICATION_TYPE": "U", "NORAD_CAT_ID": 31891, "ELEMENT_SET_NO": 999, "REV_AT_EPOCH": 92540, "BSTAR": 0.00046222559, "MEAN_MOTION_DOT": 4.12e-06, "MEAN_MOTION_DDOT": 0}, "tle": {"line1": "1 31891U 99025CKS 25356.27283207  .00000412  00000+0  46223-3 0  9995", "line2": "2 31891  99.4019  11.0849 0225142 158.7468 202.3212 13.66212929925407"}}, "geometry": {"type": "Point", "coordinates": [-165.0888762324744, 6.123803686396865]}}, {"type": "Feature", "properties": {"norad_id": 31892, "name": "FENGYUN 1C DEB", "group": "fengyun-1c-debris", "lat": -44.39954707456585, "lon": -19.19285062699774, "alt_km": 630.7614388051716, "timestamp": "2025-12-25T03:55:56.642515+00:00", "meta": {"OBJECT_NAME": "FENGYUN 1C DEB", "OBJECT_ID": "1999-025CKT", "EPOCH": "2025-12-22T06:33:48.015360", "MEAN_MOTION": 14.41236891, "ECCENTRICITY": 0.02014657, "INCLINATION": 99.2968, "RA_OF_ASC_NODE": 166.8939, "ARG_OF_PERICENTER": 259.0043, "MEAN_ANOMALY": 98.8424, "EPHEMERIS_TYPE": 0, "CLASSIFICATION_TYPE": "U", "NORAD_CAT_ID": 31892, "ELEMENT_SET_NO": 999, "REV_AT_EPOCH": 65043, "BSTAR": 0.00063446246, "MEAN_MOTION_DOT": 2.547e-05, "MEAN_MOTION_DDOT": 0}, "tle": {"line1": "1 31892U 99025CKT 25356.27347240  .00002547  00000+0  63446-3 0  9991", "line2": "2 31892  99.2968 166.8939 0201465 259.0043  98.8424 14.41236891650433"}}, "geometry": {"type": "Point", "coordinates": [-19.19285062699774, -44.39954707456585]}}, {"type": "Feature", "properties": {"norad_id": 31893, "name": "FENGYUN 1C DEB", "group": "fengyun-1c-debris", "lat": 17.797235307538415, "lon": 141.62832666689894, "alt_km": 753.5900346689577, "timestamp": "2025-12-25T03:55:56.642527+00:00", "meta": {"OBJECT_NAME": "FENGYUN 1C DEB", "OBJECT_ID": "1999-025CKU", "EPOCH": "2025-12-21T04:05:40.704864", "MEAN_MOTION": 14.63799874, "ECCENTRICITY": 0.01744274, "INCLINATION": 99.0712, "RA_OF_ASC_NODE": 314.2943, "ARG_OF_PERICENTER": 300.8444, "MEAN_ANOMALY": 71.653, "EPHEMERIS_TYPE": 0, "CLASSIFICATION_TYPE": "U", "NORAD_CAT_ID": 31893, "ELEMENT_SET_NO": 999, "REV_AT_EPOCH": 98528, "BSTAR": 0.00027010853, "MEAN_MOTION_DOT": 1.686e-05, "MEAN_MOTION_DDOT": 0}, "tle": {"line1": "1 31893U 99025CKU 25355.17061001  .00001686  00000+0  27011-3 0  9999", "line2": "2 31893  99.0712 314.2943 0174427 300.8444  71.6530 14.63799874985280"}}, "geometry": {"type": "Point", "coordinates": [141.62832666689894, 17.797235307538415]}}, {"type": "Feature", "properties": {"norad_id": 31895, "name": "FENGYUN 1C DEB", "group": "fengyun-1c-debris", "lat": 51.78922865126771, "lon": 15.76308929377344, "alt_km": 1108.6902821793165, "timestamp": "2025-12-25T03:55:56.642814+00:00", "meta": {"OBJECT_NAME": "FENGYUN 1C DEB", "OBJECT_ID": "1999-025CKW", "EPOCH": "2025-12-22T19:48:12.153024", "MEAN_MOTION": 13.75569299, "ECCENTRICITY": 0.02272161, "INCLINATION": 99.0943, "RA_OF_ASC_NODE": 25.2696, "ARG_OF_PERICENTER": 202.9937, "MEAN_ANOMALY": 156.0915, "EPHEMERIS_TYPE": 0, "CLASSIFICATION_TYPE": "U", "NORAD_CAT_ID": 31895, "ELEMENT_SET_NO": 999, "REV_AT_EPOCH": 62035, "BSTAR": 0.0017599678, "MEAN_MOTION_DOT": 2.006e-05, "MEAN_MOTION_DDOT": 0}, "tle": {"line1": "1 31895U 99025CKW 25356.82514066  .00002006  00000+0  17600-2 0  9997", "line2": "2 31895  99.0943  25.2696 0227216 202.9937 156.0915 13.75569299620353"}}, "geometry": {"type": "Point", "coordinates": [15.76308929377344, 51.78922865126771]}}]}